[{"OBJECT_NAME":"STARLINK-11259 [DTC]","OBJECT_ID":"2024-152B","EPOCH":"2026-03-09T09:14:06.158400","MEAN_MOTION":15.69698947,"ECCENTRICITY":0.00013801,"INCLINATION":53.1604,"RA_OF_ASC_NODE":118.0201,"ARG_OF_PERICENTER":94.6578,"MEAN_ANOMALY":265.4597,"EPHEMERIS_TYPE":0,"CLASSIFICATION_TYPE":"U","NORAD_CAT_ID":60721,"ELEMENT_SET_NO":999,"REV_AT_EPOCH":8878,"BSTAR":9.9066e-6,"MEAN_MOTION_DOT":6.11e-6,"MEAN_MOTION_DDOT":0},{"OBJECT_NAME":"HORIZON (RS59S)","OBJECT_ID":"2024-199Y","EPOCH":"2026-03-09T22:30:11.638080","MEAN_MOTION":15.70291895,"ECCENTRICITY":0.00030615,"INCLINATION":97.3063,"RA_OF_ASC_NODE":307.7521,"ARG_OF_PERICENTER":244.864,"MEAN_ANOMALY":115.2305,"EPHEMERIS_TYPE":0,"CLASSIFICATION_TYPE":"U","NORAD_CAT_ID":61757,"ELEMENT_SET_NO":999,"REV_AT_EPOCH":12246,"BSTAR":0.00120059,"MEAN_MOTION_DOT":0.00148042,"MEAN_MOTION_DDOT":0}]
